CCSDS_OMM_VERS = 2.0
CREATION_DATE  = 
ORIGINATOR     = 

OBJECT_NAME    = SL-3 R/B
OBJECT_ID      = 1982-079B
CENTER_NAME    = EARTH
REF_FRAME      = TEME
TIME_SYSTEM    = UTC
MEAN_ELEMENT_THEORY = SGP/SGP4

EPOCH          = 2026-03-18T14:11:20.509440
MEAN_MOTION    = 15.24926360
ECCENTRICITY   = .00253666
INCLINATION    = 81.1491
RA_OF_ASC_NODE = 182.5675
ARG_OF_PERICENTER = 135.2628
MEAN_ANOMALY   = 225.0658

EPHEMERIS_TYPE = 0
CLASSIFICATION_TYPE = U
NORAD_CAT_ID   = 13403
ELEMENT_SET_NO = 999
REV_AT_EPOCH   = 37905
BSTAR          = .20575363E-3
MEAN_MOTION_DOT = .5195E-4
MEAN_MOTION_DDOT = 0

CCSDS_OMM_VERS = 2.0
CREATION_DATE  = 
ORIGINATOR     = 

OBJECT_NAME    = SL-14 R/B
OBJECT_ID      = 1982-092B
CENTER_NAME    = EARTH
REF_FRAME      = TEME
TIME_SYSTEM    = UTC
MEAN_ELEMENT_THEORY = SGP/SGP4

EPOCH          = 2026-03-18T02:51:13.716864
MEAN_MOTION    = 14.86674179
ECCENTRICITY   = .0018751
INCLINATION    = 82.5677
RA_OF_ASC_NODE = 133.5152
ARG_OF_PERICENTER = 273.4594
MEAN_ANOMALY   = 119.8772

EPHEMERIS_TYPE = 0
CLASSIFICATION_TYPE = U
NORAD_CAT_ID   = 13553
ELEMENT_SET_NO = 999
REV_AT_EPOCH   = 33018
BSTAR          = .41643603E-4
MEAN_MOTION_DOT = .395E-5
MEAN_MOTION_DDOT = 0

CCSDS_OMM_VERS = 2.0
CREATION_DATE  = 
ORIGINATOR     = 

OBJECT_NAME    = SL-3 R/B
OBJECT_ID      = 1983-010B
CENTER_NAME    = EARTH
REF_FRAME      = TEME
TIME_SYSTEM    = UTC
MEAN_ELEMENT_THEORY = SGP/SGP4

EPOCH          = 2026-03-18T11:53:48.996672
MEAN_MOTION    = 15.46660793
ECCENTRICITY   = .001714
INCLINATION    = 81.1067
RA_OF_ASC_NODE = 351.4502
ARG_OF_PERICENTER = 22.0984
MEAN_ANOMALY   = 338.0996

EPHEMERIS_TYPE = 0
CLASSIFICATION_TYPE = U
NORAD_CAT_ID   = 13819
ELEMENT_SET_NO = 999
REV_AT_EPOCH   = 35930
BSTAR          = .25068378E-3
MEAN_MOTION_DOT = .12612E-3
MEAN_MOTION_DDOT = 0

CCSDS_OMM_VERS = 2.0
CREATION_DATE  = 
ORIGINATOR     = 

OBJECT_NAME    = SL-3 R/B
OBJECT_ID      = 1983-075B
CENTER_NAME    = EARTH
REF_FRAME      = TEME
TIME_SYSTEM    = UTC
MEAN_ELEMENT_THEORY = SGP/SGP4

EPOCH          = 2026-03-18T14:20:22.176960
MEAN_MOTION    = 15.38624705
ECCENTRICITY   = .00210468
INCLINATION    = 97.6135
RA_OF_ASC_NODE = 82.5129
ARG_OF_PERICENTER = 192.5801
MEAN_ANOMALY   = 167.4921

EPHEMERIS_TYPE = 0
CLASSIFICATION_TYPE = U
NORAD_CAT_ID   = 14208
ELEMENT_SET_NO = 999
REV_AT_EPOCH   = 33152
BSTAR          = .22304666E-3
MEAN_MOTION_DOT = .8483E-4
MEAN_MOTION_DDOT = 0

CCSDS_OMM_VERS = 2.0
CREATION_DATE  = 
ORIGINATOR     = 

OBJECT_NAME    = COSMOS 1536
OBJECT_ID      = 1984-013A
CENTER_NAME    = EARTH
REF_FRAME      = TEME
TIME_SYSTEM    = UTC
MEAN_ELEMENT_THEORY = SGP/SGP4

EPOCH          = 2026-03-18T07:43:29.662176
MEAN_MOTION    = 15.23938820
ECCENTRICITY   = .0012558
INCLINATION    = 82.5413
RA_OF_ASC_NODE = 99.2666
ARG_OF_PERICENTER = 248.9361
MEAN_ANOMALY   = 111.0533

EPHEMERIS_TYPE = 0
CLASSIFICATION_TYPE = U
NORAD_CAT_ID   = 14699
ELEMENT_SET_NO = 999
REV_AT_EPOCH   = 27393
BSTAR          = .2119E-3
MEAN_MOTION_DOT = .5164E-4
MEAN_MOTION_DDOT = 0

CCSDS_OMM_VERS = 2.0
CREATION_DATE  = 
ORIGINATOR     = 

OBJECT_NAME    = SL-14 R/B
OBJECT_ID      = 1984-027B
CENTER_NAME    = EARTH
REF_FRAME      = TEME
TIME_SYSTEM    = UTC
MEAN_ELEMENT_THEORY = SGP/SGP4

EPOCH          = 2026-03-18T10:43:38.862048
MEAN_MOTION    = 14.85985805
ECCENTRICITY   = .00167533
INCLINATION    = 82.5397
RA_OF_ASC_NODE = 236.7977
ARG_OF_PERICENTER = 307.4941
MEAN_ANOMALY   = 52.4752

EPHEMERIS_TYPE = 0
CLASSIFICATION_TYPE = U
NORAD_CAT_ID   = 14820
ELEMENT_SET_NO = 999
REV_AT_EPOCH   = 24893
BSTAR          = .54614888E-4
MEAN_MOTION_DOT = .502E-5
MEAN_MOTION_DDOT = 0

CCSDS_OMM_VERS = 2.0
CREATION_DATE  = 
ORIGINATOR     = 

OBJECT_NAME    = SL-8 R/B
OBJECT_ID      = 1985-006B
CENTER_NAME    = EARTH
REF_FRAME      = TEME
TIME_SYSTEM    = UTC
MEAN_ELEMENT_THEORY = SGP/SGP4

EPOCH          = 2026-03-17T22:45:37.223136
MEAN_MOTION    = 14.37789274
ECCENTRICITY   = .00180977
INCLINATION    = 74.0436
RA_OF_ASC_NODE = 245.9500
ARG_OF_PERICENTER = 161.5600
MEAN_ANOMALY   = 313.5292

EPHEMERIS_TYPE = 0
CLASSIFICATION_TYPE = U
NORAD_CAT_ID   = 15483
ELEMENT_SET_NO = 999
REV_AT_EPOCH   = 15521
BSTAR          = .10830048E-3
MEAN_MOTION_DOT = .301E-5
MEAN_MOTION_DDOT = 0

CCSDS_OMM_VERS = 2.0
CREATION_DATE  = 
ORIGINATOR     = 

OBJECT_NAME    = SL-12 R/B(2)
OBJECT_ID      = 1985-042D
CENTER_NAME    = EARTH
REF_FRAME      = TEME
TIME_SYSTEM    = UTC
MEAN_ELEMENT_THEORY = SGP/SGP4

EPOCH          = 2026-03-18T10:15:14.576256
MEAN_MOTION    = 14.21984888
ECCENTRICITY   = .00329846
INCLINATION    = 71.1067
RA_OF_ASC_NODE = 69.2668
ARG_OF_PERICENTER = 113.7231
MEAN_ANOMALY   = 359.6598

EPHEMERIS_TYPE = 0
CLASSIFICATION_TYPE = U
NORAD_CAT_ID   = 15772
ELEMENT_SET_NO = 999
REV_AT_EPOCH   = 11563
BSTAR          = .27576563E-4
MEAN_MOTION_DOT = .14E-6
MEAN_MOTION_DDOT = 0

CCSDS_OMM_VERS = 2.0
CREATION_DATE  = 
ORIGINATOR     = 

OBJECT_NAME    = SL-14 R/B
OBJECT_ID      = 1985-069B
CENTER_NAME    = EARTH
REF_FRAME      = TEME
TIME_SYSTEM    = UTC
MEAN_ELEMENT_THEORY = SGP/SGP4

EPOCH          = 2026-03-18T13:31:46.805088
MEAN_MOTION    = 14.86443216
ECCENTRICITY   = .00192817
INCLINATION    = 82.5298
RA_OF_ASC_NODE = 16.5902
ARG_OF_PERICENTER = 158.4599
MEAN_ANOMALY   = 201.7433

EPHEMERIS_TYPE = 0
CLASSIFICATION_TYPE = U
NORAD_CAT_ID   = 15945
ELEMENT_SET_NO = 999
REV_AT_EPOCH   = 17415
BSTAR          = .52830495E-4
MEAN_MOTION_DOT = .493E-5
MEAN_MOTION_DDOT = 0

CCSDS_OMM_VERS = 2.0
CREATION_DATE  = 
ORIGINATOR     = 

OBJECT_NAME    = SL-16 R/B
OBJECT_ID      = 1985-097B
CENTER_NAME    = EARTH
REF_FRAME      = TEME
TIME_SYSTEM    = UTC
MEAN_ELEMENT_THEORY = SGP/SGP4

EPOCH          = 2026-03-18T14:51:49.103712
MEAN_MOTION    = 14.16599532
ECCENTRICITY   = .00096373
INCLINATION    = 71.0014
RA_OF_ASC_NODE = 121.7550
ARG_OF_PERICENTER = 248.8223
MEAN_ANOMALY   = 263.8312

EPHEMERIS_TYPE = 0
CLASSIFICATION_TYPE = U
NORAD_CAT_ID   = 16182
ELEMENT_SET_NO = 999
REV_AT_EPOCH   = 8849
BSTAR          = .15154319E-3
MEAN_MOTION_DOT = .255E-5
MEAN_MOTION_DDOT = 0

CCSDS_OMM_VERS = 2.0
CREATION_DATE  = 
ORIGINATOR     = 

OBJECT_NAME    = SL-14 R/B
OBJECT_ID      = 1986-006B
CENTER_NAME    = EARTH
REF_FRAME      = TEME
TIME_SYSTEM    = UTC
MEAN_ELEMENT_THEORY = SGP/SGP4

EPOCH          = 2026-03-18T11:18:32.673600
MEAN_MOTION    = 14.86827891
ECCENTRICITY   = .00752065
INCLINATION    = 82.5237
RA_OF_ASC_NODE = 251.4698
ARG_OF_PERICENTER = 243.1269
MEAN_ANOMALY   = 116.2247

EPHEMERIS_TYPE = 0
CLASSIFICATION_TYPE = U
NORAD_CAT_ID   = 16496
ELEMENT_SET_NO = 999
REV_AT_EPOCH   = 15051
BSTAR          = .74548199E-4
MEAN_MOTION_DOT = .725E-5
MEAN_MOTION_DDOT = 0

CCSDS_OMM_VERS = 2.0
CREATION_DATE  = 
ORIGINATOR     = 

OBJECT_NAME    = COSMOS 1743
OBJECT_ID      = 1986-034A
CENTER_NAME    = EARTH
REF_FRAME      = TEME
TIME_SYSTEM    = UTC
MEAN_ELEMENT_THEORY = SGP/SGP4

EPOCH          = 2026-03-18T08:55:39.952416
MEAN_MOTION    = 15.59207926
ECCENTRICITY   = .00021678
INCLINATION    = 82.5280
RA_OF_ASC_NODE = 64.7117
ARG_OF_PERICENTER = 216.4499
MEAN_ANOMALY   = 143.6610

EPHEMERIS_TYPE = 0
CLASSIFICATION_TYPE = U
NORAD_CAT_ID   = 16719
ELEMENT_SET_NO = 999
REV_AT_EPOCH   = 18160
BSTAR          = .4110675E-3
MEAN_MOTION_DOT = .32322E-3
MEAN_MOTION_DDOT = 0

